{
  "type": "FeatureCollection",
  "features": [
    {
      "type": "Feature",
      "properties": {
        "norad_id": 43706,
        "name": "BEIDOU-3 M17 (C36)",
        "group": "beidou",
        "lat": 25.02028519739895,
        "lon": -11.285747812108477,
        "alt_km": 21541.23835208116,
        "timestamp": "2025-12-18T13:51:49.949053+00:00",
        "meta_object_name": "BEIDOU-3 M17 (C36)",
        "meta_object_id": "2018-093A",
        "meta_epoch": "2025-12-15T07:56:44.520576",
        "meta_mean_motion": 1.86228523,
        "meta_eccentricity": 0.00061371,
        "meta_inclination": 54.1729,
        "meta_ra_of_asc_node": 188.5337,
        "meta_arg_of_pericenter": 307.6759,
        "meta_mean_anomaly": 184.25,
        "meta_ephemeris_type": 0,
        "meta_classification_type": "U",
        "meta_norad_cat_id": 43706,
        "meta_element_set_no": 999,
        "meta_rev_at_epoch": 4811,
        "meta_bstar": 0,
        "meta_mean_motion_dot": 1.13e-06,
        "meta_mean_motion_ddot": 0,
        "tle_line1": "1 43706U 18093A   25349.33107084  .00000113  00000+0  00000+0 0  9993",
        "tle_line2": "2 43706  54.1729 188.5337 0006137 307.6759 184.2500  1.86228523 48110"
      },
      "geometry": {
        "type": "Point",
        "coordinates": [
          -11.285747812108477,
          25.02028519739895
        ]
      }
    },
    {
      "type": "Feature",
      "properties": {
        "norad_id": 43707,
        "name": "BEIDOU-3 M18 (C37)",
        "group": "beidou",
        "lat": -45.33286522351434,
        "lon": 55.4107503323673,
        "alt_km": 21540.242242581746,
        "timestamp": "2025-12-18T13:51:49.949065+00:00",
        "meta_object_name": "BEIDOU-3 M18 (C37)",
        "meta_object_id": "2018-093B",
        "meta_epoch": "2025-12-16T14:33:42.784416",
        "meta_mean_motion": 1.8622677,
        "meta_eccentricity": 0.00063186,
        "meta_inclination": 54.1735,
        "meta_ra_of_asc_node": 188.4822,
        "meta_arg_of_pericenter": 353.2257,
        "meta_mean_anomaly": 6.8349,
        "meta_ephemeris_type": 0,
        "meta_classification_type": "U",
        "meta_norad_cat_id": 43707,
        "meta_element_set_no": 999,
        "meta_rev_at_epoch": 4813,
        "meta_bstar": 0,
        "meta_mean_motion_dot": 1.15e-06,
        "meta_mean_motion_ddot": 0,
        "tle_line1": "1 43707U 18093B   25350.60674519  .00000115  00000+0  00000+0 0  9990",
        "tle_line2": "2 43707  54.1735 188.4822 0006318 353.2257   6.8349  1.86226770 48131"
      },
      "geometry": {
        "type": "Point",
        "coordinates": [
          55.4107503323673,
          -45.33286522351434
        ]
      }
    },
    {
      "type": "Feature",
      "properties": {
        "norad_id": 44204,
        "name": "BEIDOU-3 IGSO-1 (C38)",
        "group": "beidou",
        "lat": 7.139577139613003,
        "lon": 43.96978249490092,
        "alt_km": 35889.24031779126,
        "timestamp": "2025-12-18T13:51:49.949077+00:00",
        "meta_object_name": "BEIDOU-3 IGSO-1 (C38)",
        "meta_object_id": "2019-023A",
        "meta_epoch": "2025-11-19T14:15:02.708640",
        "meta_mean_motion": 1.00252177,
        "meta_eccentricity": 0.0026966,
        "meta_inclination": 58.4003,
        "meta_ra_of_asc_node": 39.8168,
        "meta_arg_of_pericenter": 221.2202,
        "meta_mean_anomaly": 126.9723,
        "meta_ephemeris_type": 0,
        "meta_classification_type": "U",
        "meta_norad_cat_id": 44204,
        "meta_element_set_no": 999,
        "meta_rev_at_epoch": 510,
        "meta_bstar": 0,
        "meta_mean_motion_dot": -2.26e-06,
        "meta_mean_motion_ddot": 0,
        "tle_line1": "1 44204U 19023A   25323.59378135 -.00000226  00000+0  00000+0 0  9994",
        "tle_line2": "2 44204  58.4003  39.8168 0026966 221.2202 126.9723  1.00252177  5102"
      },
      "geometry": {
        "type": "Point",
        "coordinates": [
          43.96978249490092,
          7.139577139613003
        ]
      }
    },
    {
      "type": "Feature",
      "properties": {
        "norad_id": 44231,
        "name": "BEIDOU-2 G8 (C01)",
        "group": "beidou",
        "lat": 0.17676302696993643,
        "lon": 79.8891869819882,
        "alt_km": 35797.66667205733,
        "timestamp": "2025-12-18T13:51:49.949093+00:00",
        "meta_object_name": "BEIDOU-2 G8 (C01)",
        "meta_object_id": "2019-027A",
        "meta_epoch": "2025-12-18T10:33:26.151264",
        "meta_mean_motion": 1.00266789,
        "meta_eccentricity": 0.000883,
        "meta_inclination": 1.6755,
        "meta_ra_of_asc_node": 74.762,
        "meta_arg_of_pericenter": 259.3084,
        "meta_mean_anomaly": 56.0016,
        "meta_ephemeris_type": 0,
        "meta_classification_type": "U",
        "meta_norad_cat_id": 44231,
        "meta_element_set_no": 999,
        "meta_rev_at_epoch": 2426,
        "meta_bstar": 0,
        "meta_mean_motion_dot": -2.25e-06,
        "meta_mean_motion_ddot": 0,
        "tle_line1": "1 44231U 19027A   25352.43988601 -.00000225  00000+0  00000+0 0  9997",
        "tle_line2": "2 44231   1.6755  74.7620 0008830 259.3084  56.0016  1.00266789 24267"
      },
      "geometry": {
        "type": "Point",
        "coordinates": [
          79.8891869819882,
          0.17676302696993643
        ]
      }
    },
    {
      "type": "Feature",
      "properties": {
        "norad_id": 44337,
        "name": "BEIDOU-3 IGSO-2 (C39)",
        "group": "beidou",
        "lat": -52.37103061016003,
        "lon": 44.951585905323824,
        "alt_km": 35696.468531484395,
        "timestamp": "2025-12-18T13:51:49.949105+00:00",
        "meta_object_name": "BEIDOU-3 IGSO-2 (C39)",
        "meta_object_id": "2019-035A",
        "meta_epoch": "2025-12-17T20:45:00.400608",
        "meta_mean_motion": 1.00269779,
        "meta_eccentricity": 0.00374701,
        "meta_inclination": 55.227,
        "meta_ra_of_asc_node": 160.4563,
        "meta_arg_of_pericenter": 202.3425,
        "meta_mean_anomaly": 154.6367,
        "meta_ephemeris_type": 0,
        "meta_classification_type": "U",
        "meta_norad_cat_id": 44337,
        "meta_element_set_no": 999,
        "meta_rev_at_epoch": 2384,
        "meta_bstar": 0,
        "meta_mean_motion_dot": -4.5e-07,
        "meta_mean_motion_ddot": 0,
        "tle_line1": "1 44337U 19035A   25351.86458797 -.00000045  00000+0  00000+0 0  9997",
        "tle_line2": "2 44337  55.2270 160.4563 0037470 202.3425 154.6367  1.00269779 23848"
      },
      "geometry": {
        "type": "Point",
        "coordinates": [
          44.951585905323824,
          -52.37103061016003
        ]
      }
    },
    {
      "type": "Feature",
      "properties": {
        "norad_id": 44542,
        "name": "BEIDOU-3 M24 (C46)",
        "group": "beidou",
        "lat": -11.271800160252862,
        "lon": 17.03869682547756,
        "alt_km": 21556.220918979125,
        "timestamp": "2025-12-18T13:51:49.949117+00:00",
        "meta_object_name": "BEIDOU-3 M24 (C46)",
        "meta_object_id": "2019-061A",
        "meta_epoch": "2025-12-16T03:22:44.327712",
        "meta_mean_motion": 1.86229353,
        "meta_eccentricity": 0.00096014,
        "meta_inclination": 54.4001,
        "meta_ra_of_asc_node": 188.9011,
        "meta_arg_of_pericenter": 24.8001,
        "meta_mean_anomaly": 335.316,
        "meta_ephemeris_type": 0,
        "meta_classification_type": "U",
        "meta_norad_cat_id": 44542,
        "meta_element_set_no": 999,
        "meta_rev_at_epoch": 4238,
        "meta_bstar": 0,
        "meta_mean_motion_dot": 1.15e-06,
        "meta_mean_motion_ddot": 0,
        "tle_line1": "1 44542U 19061A   25350.14079083  .00000115  00000+0  00000+0 0  9998",
        "tle_line2": "2 44542  54.4001 188.9011 0009601  24.8001 335.3160  1.86229353 42381"
      },
      "geometry": {
        "type": "Point",
        "coordinates": [
          17.03869682547756,
          -11.271800160252862
        ]
      }
    },
    {
      "type": "Feature",
      "properties": {
        "norad_id": 44543,
        "name": "BEIDOU-3 M23 (C45)",
        "group": "beidou",
        "lat": 51.13188782028088,
        "lon": -53.996693639112245,
        "alt_km": 21519.97733257653,
        "timestamp": "2025-12-18T13:51:49.949129+00:00",
        "meta_object_name": "BEIDOU-3 M23 (C45)",
        "meta_object_id": "2019-061B",
        "meta_epoch": "2025-12-18T04:28:40.463616",
        "meta_mean_motion": 1.86227759,
        "meta_eccentricity": 0.00060655,
        "meta_inclination": 54.3991,
        "meta_ra_of_asc_node": 188.8006,
        "meta_arg_of_pericenter": 24.5513,
        "meta_mean_anomaly": 179.8901,
        "meta_ephemeris_type": 0,
        "meta_classification_type": "U",
        "meta_norad_cat_id": 44543,
        "meta_element_set_no": 999,
        "meta_rev_at_epoch": 4242,
        "meta_bstar": 0,
        "meta_mean_motion_dot": 1.09e-06,
        "meta_mean_motion_ddot": 0,
        "tle_line1": "1 44543U 19061B   25352.18657944  .00000109  00000+0  00000+0 0  9996",
        "tle_line2": "2 44543  54.3991 188.8006 0006065  24.5513 179.8901  1.86227759 42425"
      },
      "geometry": {
        "type": "Point",
        "coordinates": [
          -53.996693639112245,
          51.13188782028088
        ]
      }
    }
  ]
}